OBJECT_NAME,OBJECT_ID,EPOCH,MEAN_MOTION,ECCENTRICITY,INCLINATION,RA_OF_ASC_NODE,ARG_OF_PERICENTER,MEAN_ANOMALY,EPHEMERIS_TYPE,CLASSIFICATION_TYPE,NORAD_CAT_ID,ELEMENT_SET_NO,REV_AT_EPOCH,BSTAR,MEAN_MOTION_DOT,MEAN_MOTION_DDOT
H-2A R/B,2006-002B,2026-07-14T11:19:20.485632,15.18437894,.00507437,98.2588,353.7802,168.4726,191.7680,0,U,28932,999,11366,.22731998E-3,.4756E-4,0
RESURS-DK 1,2006-021A,2026-07-14T14:23:11.394816,15.13317802,.0007075,69.9308,268.5885,271.7724,88.2632,0,U,29228,999,10672,.57623E-4,.92E-5,0
CZ-4B R/B,2006-046C,2026-07-14T16:14:46.025376,15.17978865,.00325357,97.5439,240.1997,183.8870,176.2116,0,U,29507,999,7930,.12283654E-3,.2458E-4,0
CZ-2C R/B,2007-010B,2026-07-14T21:17:20.452992,14.20281723,.00577785,98.4119,302.8861,284.6809,74.7968,0,U,31114,999,99777,.3205836E-4,.28E-6,0
COSMO-SKYMED 1,2007-023A,2026-07-14T22:30:47.438784,14.97218584,.00014027,97.8845,28.0286,103.5054,256.6324,0,U,31598,999,3394,.12597732E-3,.1398E-4,0
COSMOS 2428,2007-029A,2026-07-14T16:23:56.182560,14.12934086,.00072101,70.9382,296.7461,82.3000,277.8939,0,U,31792,999,98203,.14768636E-3,.227E-5,0
SL-16 R/B,2007-029B,2026-07-14T14:53:47.381856,14.14851481,.0001974,70.9745,265.5606,256.1675,210.9434,0,U,31793,999,98332,.10513E-3,.155E-5,0
KORONAS-FOTON,2009-003A,2026-07-14T21:50:35.812608,15.46293473,.00122176,82.4307,143.3285,63.3200,296.9298,0,U,33504,999,96538,.14566178E-3,.7234E-4,0
CZ-2C R/B,2011-030B,2026-07-14T20:47:07.017216,14.81531981,.00508426,97.8670,150.7563,297.2604,116.0528,0,U,37731,999,80892,.68501514E-4,.493E-5,0
H-2A R/B,2012-025E,2026-07-14T22:02:28.753440,14.95837155,.00424822,98.4847,173.3555,256.0550,103.5942,0,U,38341,999,76723,.50573381E-4,.503E-5,0
SHIJIAN-16 (SJ-16),2013-057A,2026-07-14T22:06:25.098912,14.92669731,.00158191,74.9739,304.1531,165.3482,194.8168,0,U,39358,999,69048,.68289934E-4,.676E-5,0
SL-4 R/B,2014-021B,2026-07-14T22:14:56.578272,15.42479793,.0089675,51.6065,74.8189,207.4947,152.1279,0,U,39679,999,67589,.13107428E-3,.6205E-4,0
ALOS-2,2014-029A,2026-07-14T22:28:13.998432,14.79471774,.0001574,97.9234,292.7032,91.3724,268.7668,0,U,39766,999,65568,.37199095E-4,.226E-5,0
YAOGAN-29,2015-069A,2026-07-14T23:23:12.751296,14.83106707,.00006993,98.0020,224.6494,14.3670,345.7563,0,U,41038,999,57474,.57308912E-4,.413E-5,0
ASTRO-H (HITOMI),2016-012A,2026-07-14T12:32:32.223552,15.10631139,.00096096,30.9983,257.6328,168.5633,191.5225,0,U,41337,999,57142,.75497903E-4,.1376E-4,0
HXMT (HUIYAN),2017-034A,2026-07-14T22:57:51.808896,15.18687349,.00323202,43.0154,28.3874,319.3175,40.5260,0,U,42758,999,50188,.11707839E-3,.2257E-4,0
SAOCOM 1A,2018-076A,2026-07-14T22:48:33.668352,14.82149656,.00014797,97.8880,22.2955,86.8504,273.2879,0,U,43641,999,42021,.11792997E-3,.887E-5,0
H-2A R/B,2018-084L,2026-07-14T15:23:31.470144,15.46187333,.00205902,98.8535,80.5497,302.6906,57.2352,0,U,43682,999,42536,.24249297E-3,.11882E-3,0
SAOCOM 1B,2020-059A,2026-07-14T23:33:29.762208,14.82157832,.00015317,97.8884,21.4225,80.4864,279.6522,0,U,46265,999,31760,.6357401E-5,-.2E-7,0
CSS (TIANHE),2021-035A,2026-07-14T21:28:01.171200,15.58084991,.00022567,41.4689,153.6564,302.1088,57.9530,0,U,48274,999,29749,.20034416E-4,.122E-4,0
COSMOS 2550,2021-056A,2026-07-14T23:57:43.565760,15.33826790,.00085022,67.1434,15.7786,270.4330,89.5851,0,U,48865,999,28298,.93579491E-4,.2888E-4,0
CZ-2C R/B,2022-058K,2026-07-14T22:14:47.561568,15.63843246,.00302713,50.1858,18.9624,21.4847,338.7391,0,U,52794,999,22998,.28999092E-3,.27981E-3,0
CZ-2C R/B,2022-132E,2026-07-14T22:45:03.077856,15.74962421,.00095262,97.2888,204.2822,343.2988,16.7962,0,U,54039,999,21031,.33443716E-3,.49686E-3,0
GSLV R/B,2022-138AN,2026-07-14T20:27:51.424128,14.97381639,.00235866,87.3817,123.6945,53.3291,307.0104,0,U,54149,999,20295,.1073975E-3,.1284E-4,0
XRISM,2023-137A,2026-07-14T09:05:04.103808,15.12665675,.00078822,31.0007,183.4361,238.2154,121.7717,0,U,57800,999,15698,.10577295E-3,.1995E-4,0
ACS3,2024-077B,2026-07-14T16:20:03.392448,13.95287602,.01250999,97.1736,108.3757,37.2913,323.6859,0,U,59588,999,11187,.14287062E-2,.2035E-4,0
SPACEMOBILE-003,2024-163A,2026-07-14T11:46:11.481024,15.20702842,.000471,52.9669,183.8848,191.1614,168.9277,0,U,61045,999,10192,.39467E-4,.552E-5,0
SPACEMOBILE-005,2024-163B,2026-07-14T09:47:43.181952,15.20719732,.00086722,52.9761,184.2104,193.5101,166.5662,0,U,61046,999,10190,.65581849E-4,.1133E-4,0
SPACEMOBILE-001,2024-163C,2026-07-14T14:29:16.219680,15.20740619,.00072574,52.9737,183.0227,191.6919,168.3908,0,U,61047,999,10193,.21929994E-4,.161E-5,0
SPACEMOBILE-002,2024-163D,2026-07-14T23:33:52.252992,15.20783994,.00060318,52.9774,181.3232,191.1381,168.9481,0,U,61048,999,10199,.19447481E-3,.4016E-4,0
