H-2A R/B                
1 28932U 06002B   26195.47176488  .00004756  00000+0  22732-3 0  9990
2 28932  98.2588 353.7802 0050743 168.4726 191.7680 15.18437894113666
RESURS-DK 1             
1 29228U 06021A   26195.59943744  .00000920  00000+0  57623-4 0  9997
2 29228  69.9308 268.5885 0007075 271.7724  88.2632 15.13317802106727
CZ-4B R/B               
1 29507U 06046C   26195.67692159  .00002458  00000+0  12284-3 0  9995
2 29507  97.5439 240.1997 0032535 183.8870 176.2116 15.17978865 79307
CZ-2C R/B               
1 31114U 07010B   26195.88704228  .00000028  00000+0  32058-4 0  9991
2 31114  98.4119 302.8861 0057778 284.6809  74.7968 14.20281723997773
COSMO-SKYMED 1          
1 31598U 07023A   26195.93804906  .00001398  00000+0  12598-3 0  9998
2 31598  97.8845  28.0286 0001402 103.5054 256.6324 14.97218584 33946
COSMOS 2428             
1 31792U 07029A   26195.68328915  .00000227  00000+0  14769-3 0  9995
2 31792  70.9382 296.7461 0007210  82.3000 277.8939 14.12934086982036
SL-16 R/B               
1 31793U 07029B   26195.62068729  .00000155  00000+0  10513-3 0  9997
2 31793  70.9745 265.5606 0001974 256.1675 210.9434 14.14851481983325
KORONAS-FOTON           
1 33504U 09003A   26195.91013672  .00007234  00000+0  14566-3 0  9999
2 33504  82.4307 143.3285 0012217  63.3200 296.9298 15.46293473965384
CZ-2C R/B               
1 37731U 11030B   26195.86605344  .00000493  00000+0  68502-4 0  9995
2 37731  97.8670 150.7563 0050842 297.2604 116.0528 14.81531981808927
H-2A R/B                
1 38341U 12025E   26195.91838835  .00000503  00000+0  50573-4 0  9998
2 38341  98.4847 173.3555 0042482 256.0550 103.5942 14.95837155767230
SHIJIAN-16 (SJ-16)      
1 39358U 13057A   26195.92112383  .00000676  00000+0  68290-4 0  9993
2 39358  74.9739 304.1531 0015819 165.3482 194.8168 14.92669731690481
SL-4 R/B                
1 39679U 14021B   26195.92704373  .00006205  00000+0  13107-3 0  9997
2 39679  51.6065  74.8189 0089675 207.4947 152.1279 15.42479793675897
ALOS-2                  
1 39766U 14029A   26195.93627313  .00000226  00000+0  37199-4 0  9996
2 39766  97.9234 292.7032 0001574  91.3724 268.7668 14.79471774655689
YAOGAN-29               
1 41038U 15069A   26195.97445314  .00000413  00000+0  57309-4 0  9992
2 41038  98.0020 224.6494 0000699  14.3670 345.7563 14.83106707574740
ASTRO-H (HITOMI)        
1 41337U 16012A   26195.52259518  .00001376  00000+0  75498-4 0  9991
2 41337  30.9983 257.6328 0009609 168.5633 191.5225 15.10631139571425
HXMT (HUIYAN)           
1 42758U 17034A   26195.95684964  .00002257  00000+0  11708-3 0  9990
2 42758  43.0154  28.3874 0032320 319.3175  40.5260 15.18687349501887
SAOCOM 1A               
1 43641U 18076A   26195.95038968  .00000887  00000+0  11793-3 0  9997
2 43641  97.8880  22.2955 0001479  86.8504 273.2879 14.82149656420210
H-2A R/B                
1 43682U 18084L   26195.64133646  .00011882  00000+0  24249-3 0  9993
2 43682  98.8535  80.5497 0020590 302.6906  57.2352 15.46187333425363
SAOCOM 1B               
1 46265U 20059A   26195.98159447 -.00000002  00000+0  63574-5 0  9991
2 46265  97.8884  21.4225 0001531  80.4864 279.6522 14.82157832317606
CSS (TIANHE)            
1 48274U 21035A   26195.89445800  .00001220  00000+0  20034-4 0  9994
2 48274  41.4689 153.6564 0002256 302.1088  57.9530 15.58084991297496
COSMOS 2550             
1 48865U 21056A   26195.99842090  .00002888  00000+0  93579-4 0  9991
2 48865  67.1434  15.7786 0008502 270.4330  89.5851 15.33826790282985
CZ-2C R/B               
1 52794U 22058K   26195.92693937  .00027981  00000+0  28999-3 0  9991
2 52794  50.1858  18.9624 0030271  21.4847 338.7391 15.63843246229981
CZ-2C R/B               
1 54039U 22132E   26195.94795229  .00049686  00000+0  33444-3 0  9994
2 54039  97.2888 204.2822 0009526 343.2988  16.7962 15.74962421210313
GSLV R/B                
1 54149U 22138AN  26195.85267852  .00001284  00000+0  10740-3 0  9994
2 54149  87.3817 123.6945 0023586  53.3291 307.0104 14.97381639202950
XRISM                   
1 57800U 23137A   26195.37851972  .00001995  00000+0  10577-3 0  9997
2 57800  31.0007 183.4361 0007882 238.2154 121.7717 15.12665675156988
ACS3                    
1 59588U 24077B   26195.68059482  .00002035  00000+0  14287-2 0  9993
2 59588  97.1736 108.3757 0125099  37.2913 323.6859 13.95287602111879
SPACEMOBILE-003         
1 61045U 24163A   26195.49041066  .00000552  00000+0  39467-4 0  9999
2 61045  52.9669 183.8848 0004710 191.1614 168.9277 15.20702842101924
SPACEMOBILE-005         
1 61046U 24163B   26195.40813868  .00001133  00000+0  65582-4 0  9991
2 61046  52.9761 184.2104 0008672 193.5101 166.5662 15.20719732101902
SPACEMOBILE-001         
1 61047U 24163C   26195.60365995  .00000161  00000+0  21930-4 0  9996
2 61047  52.9737 183.0227 0007257 191.6919 168.3908 15.20740619101937
SPACEMOBILE-002         
1 61048U 24163D   26195.98185478  .00004016  00000+0  19447-3 0  9996
2 61048  52.9774 181.3232 0006031 191.1381 168.9481 15.20783994101994
